First Name,Last Name,Email,StreetAddress1,City,StateCode,PostalCode
Christian1205,Wiles06111205,christian@automatetoday.com,9962 Brook Rd. 677,Glen Allen,VA,23059
Christian1206,Wiles06121205,christian@automatetoday.com,9963 Brook Rd. 677,Glen Allen,VA,23059
Christian1207,Wiles06121205,christian@automatetoday.com,9963A Brook,Glen Allen,VA,23059
Christian1208,Wiles06121205,christian@automatetoday.com,9963 Brook Rd. 677,Glen Allen City,VA,23059
Christian1209,Wiles06121205,christian@automatetoday.com,9963 Brook Rd. 677,Glen Allen,VA State,23059
Christian1210,Wiles06121206,christian@automatetoday.com,9964 Brook Rd. 677,Glen Allen,VA,23059
Christian1211,Wiles06121207,christian@automatetoday.com,9965 Brook Rd. 677,Glen Allen,VA,23059
Christian1212,Wiles06121208,christian@automatetoday.com,9963A Brook,Glen Allen,VA,23059
Christian1213,Wiles06121209,christian@automatetoday.com,9963 Brook Rd. 677,Glen Allen City,VA,23059
Christian1214,Wiles06121210,christian@automatetoday.com,9963 Brook Rd. 677,Glen Allen,VA State,23059
Christian1215,Wiles06121211,christian@automatetoday.com,9966 Brook Rd. 677,Glen Allen,VA,23059
Christian1216,Wiles06121212,christian@automatetoday.com,9967 Brook Rd. 677,Glen Allen,VA,23059
Christian1217,Wiles06121213,christian@automatetoday.com,9963A Brook,Glen Allen,VA,23059
Christian1218,Wiles06121214,christian@automatetoday.com,9963 Brook Rd. 677,Glen Allen City,VA,23059
Christian1219,Wiles06121215,christian@automatetoday.com,9963 Brook Rd. 677,Glen Allen,VA State,23059
Christian1220,Wiles06121216,christian@automatetoday.com,9968 Brook Rd. 677,Glen Allen,VA,23059
Christian1221,Wiles06121217,christian@automatetoday.com,9969 Brook Rd. 677,Glen Allen,VA,23059
Christian1222,Wiles06121218,christian@automatetoday.com,9963A Brook,Glen Allen,VA,23059
Christian1223,Wiles06121219,christian@automatetoday.com,9963 Brook Rd. 677,Glen Allen City,VA,23059
Christian1224,Wiles06121220,christian@automatetoday.com,9963 Brook Rd. 677,Glen Allen,VA State,23059
Christian1225,Wiles06121221,christian@automatetoday.com,9970 Brook Rd. 677,Glen Allen,VA,23059
Christian1226,Wiles06121222,christian@automatetoday.com,9971 Brook Rd. 677,Glen Allen,VA,23059
Christian1227,Wiles06121223,christian@automatetoday.com,9963A Brook,Glen Allen,VA,23059
Christian1228,Wiles06121224,christian@automatetoday.com,9963 Brook Rd. 677,Glen Allen City,VA,23059
Christian1229,Wiles06121225,christian@automatetoday.com,9963 Brook Rd. 677,Glen Allen,VA State,23059
Christian1230,Wiles06121226,christian@automatetoday.com,9972 Brook Rd. 677,Glen Allen,VA,23059
Christian1231,Wiles06121227,christian@automatetoday.com,9973 Brook Rd. 677,Glen Allen,VA,23059
Christian1232,Wiles06121228,christian@automatetoday.com,9963A Brook,Glen Allen,VA,23059
Christian1233,Wiles06121229,christian@automatetoday.com,9963 Brook Rd. 677,Glen Allen City,VA,23059
Christian1234,Wiles06121230,christian@automatetoday.com,9963 Brook Rd. 677,Glen Allen,VA State,23059
Christian1235,Wiles06121231,christian@automatetoday.com,9974 Brook Rd. 677,Glen Allen,VA,23059
Christian1236,Wiles06121232,christian@automatetoday.com,9975 Brook Rd. 677,Glen Allen,VA,23059
Christian1237,Wiles06121233,christian@automatetoday.com,9963A Brook,Glen Allen,VA,23059
Christian1238,Wiles06121234,christian@automatetoday.com,9963 Brook Rd. 677,Glen Allen City,VA,23059
Christian1239,Wiles06121235,christian@automatetoday.com,9963 Brook Rd. 677,Glen Allen,VA State,23059
Christian1240,Wiles06121236,christian@automatetoday.com,9976 Brook Rd. 677,Glen Allen,VA,23059
Christian1241,Wiles06121237,christian@automatetoday.com,9977 Brook Rd. 677,Glen Allen,VA,23059
Christian1242,Wiles06121238,christian@automatetoday.com,9963A Brook,Glen Allen,VA,23059
Christian1243,Wiles06121239,christian@automatetoday.com,9963 Brook Rd. 677,Glen Allen City,VA,23059
Christian1244,Wiles06121240,christian@automatetoday.com,9963 Brook Rd. 677,Glen Allen,VA State,23059
Christian1245,Wiles06121241,christian@automatetoday.com,9978 Brook Rd. 677,Glen Allen,VA,23059
Christian1246,Wiles06121242,christian@automatetoday.com,9979 Brook Rd. 677,Glen Allen,VA,23059
Christian1247,Wiles06121243,christian@automatetoday.com,9963A Brook,Glen Allen,VA,23059
Christian1248,Wiles06121244,christian@automatetoday.com,9963 Brook Rd. 677,Glen Allen City,VA,23059
Christian1249,Wiles06121245,christian@automatetoday.com,9963 Brook Rd. 677,Glen Allen,VA State,23059
Christian1250,Wiles06121246,christian@automatetoday.com,9980 Brook Rd. 677,Glen Allen,VA,23059
Christian1251,Wiles06121247,christian@automatetoday.com,9981 Brook Rd. 677,Glen Allen,VA,23059
Christian1252,Wiles06121248,christian@automatetoday.com,9963A Brook,Glen Allen,VA,23059
Christian1253,Wiles06121249,christian@automatetoday.com,9963 Brook Rd. 677,Glen Allen City,VA,23059
Christian1254,Wiles06121250,christian@automatetoday.com,9963 Brook Rd. 677,Glen Allen,VA State,23059
Christian1255,Wiles06121251,christian@automatetoday.com,9982 Brook Rd. 677,Glen Allen,VA,23059
Christian1256,Wiles06121252,christian@automatetoday.com,9983 Brook Rd. 677,Glen Allen,VA,23059
Christian1257,Wiles06121253,christian@automatetoday.com,9963A Brook,Glen Allen,VA,23059
Christian1258,Wiles06121254,christian@automatetoday.com,9963 Brook Rd. 677,Glen Allen City,VA,23059
Christian1259,Wiles06121255,christian@automatetoday.com,9963 Brook Rd. 677,Glen Allen,VA State,23059
Christian1260,Wiles06121256,christian@automatetoday.com,9984 Brook Rd. 677,Glen Allen,VA,23059
Christian1261,Wiles06121257,christian@automatetoday.com,9985 Brook Rd. 677,Glen Allen,VA,23059
Christian1262,Wiles06121258,christian@automatetoday.com,9963A Brook,Glen Allen,VA,23059
Christian1263,Wiles06121259,christian@automatetoday.com,9963 Brook Rd. 677,Glen Allen City,VA,23059
Christian1264,Wiles06121260,christian@automatetoday.com,9963 Brook Rd. 677,Glen Allen,VA State,23059
Christian1265,Wiles06121261,christian@automatetoday.com,9986 Brook Rd. 677,Glen Allen,VA,23059
Christian1266,Wiles06121262,christian@automatetoday.com,9987 Brook Rd. 677,Glen Allen,VA,23059
Christian1267,Wiles06121263,christian@automatetoday.com,9963A Brook,Glen Allen,VA,23059
Christian1268,Wiles06121264,christian@automatetoday.com,9963 Brook Rd. 677,Glen Allen City,VA,23059
Christian1269,Wiles06121265,christian@automatetoday.com,9963 Brook Rd. 677,Glen Allen,VA State,23059
Christian1270,Wiles06121266,christian@automatetoday.com,9988 Brook Rd. 677,Glen Allen,VA,23059
Christian1271,Wiles06121267,christian@automatetoday.com,9989 Brook Rd. 677,Glen Allen,VA,23059
Christian1272,Wiles06121268,christian@automatetoday.com,9963A Brook,Glen Allen,VA,23059
Christian1273,Wiles06121269,christian@automatetoday.com,9963 Brook Rd. 677,Glen Allen City,VA,23059
Christian1274,Wiles06121270,christian@automatetoday.com,9963 Brook Rd. 677,Glen Allen,VA State,23059
Christian1275,Wiles06121271,christian@automatetoday.com,9990 Brook Rd. 677,Glen Allen,VA,23059
Christian1276,Wiles06121272,christian@automatetoday.com,9991 Brook Rd. 677,Glen Allen,VA,23059
Christian1277,Wiles06121273,christian@automatetoday.com,9963A Brook,Glen Allen,VA,23059
Christian1278,Wiles06121274,christian@automatetoday.com,9963 Brook Rd. 677,Glen Allen City,VA,23059
Christian1279,Wiles06121275,christian@automatetoday.com,9963 Brook Rd. 677,Glen Allen,VA State,23059
Christian1280,Wiles06121276,christian@automatetoday.com,9992 Brook Rd. 677,Glen Allen,VA,23059
Christian1281,Wiles06121277,christian@automatetoday.com,9993 Brook Rd. 677,Glen Allen,VA,23059
Christian1282,Wiles06121278,christian@automatetoday.com,9963A Brook,Glen Allen,VA,23059
Christian1283,Wiles06121279,christian@automatetoday.com,9963 Brook Rd. 677,Glen Allen City,VA,23059
Christian1284,Wiles06121280,christian@automatetoday.com,9963 Brook Rd. 677,Glen Allen,VA State,23059
Christian1285,Wiles06121281,christian@automatetoday.com,9994 Brook Rd. 677,Glen Allen,VA,23059
Christian1286,Wiles06121282,christian@automatetoday.com,9995 Brook Rd. 677,Glen Allen,VA,23059
Christian1287,Wiles06121283,christian@automatetoday.com,9963A Brook,Glen Allen,VA,23059
Christian1288,Wiles06121284,christian@automatetoday.com,9963 Brook Rd. 677,Glen Allen City,VA,23059
Christian1289,Wiles06121285,christian@automatetoday.com,9963 Brook Rd. 677,Glen Allen,VA State,23059
Christian1290,Wiles06121286,christian@automatetoday.com,9996 Brook Rd. 677,Glen Allen,VA,23059
Christian1291,Wiles06121287,christian@automatetoday.com,9997 Brook Rd. 677,Glen Allen,VA,23059
Christian1292,Wiles06121288,christian@automatetoday.com,9963A Brook,Glen Allen,VA,23059
Christian1293,Wiles06121289,christian@automatetoday.com,9963 Brook Rd. 677,Glen Allen City,VA,23059
Christian1294,Wiles06121290,christian@automatetoday.com,9963 Brook Rd. 677,Glen Allen,VA State,23059
Christian1295,Wiles06121291,christian@automatetoday.com,9998 Brook Rd. 677,Glen Allen,VA,23059
Christian1296,Wiles06121292,christian@automatetoday.com,9999 Brook Rd. 677,Glen Allen,VA,23059
Christian1297,Wiles06121293,christian@automatetoday.com,9963A Brook,Glen Allen,VA,23059
Christian1298,Wiles06121294,christian@automatetoday.com,9963 Brook Rd. 677,Glen Allen City,VA,23059
Christian1299,Wiles06121295,christian@automatetoday.com,9963 Brook Rd. 677,Glen Allen,VA State,23059
Christian1300,Wiles06121296,christian@automatetoday.com,10000 Brook Rd. 677,Glen Allen,VA,23059
Christian1301,Wiles06121297,christian@automatetoday.com,10001 Brook Rd. 677,Glen Allen,VA,23059
Christian1302,Wiles06121298,christian@automatetoday.com,9963A Brook,Glen Allen,VA,23059
Christian1303,Wiles06121299,christian@automatetoday.com,9963 Brook Rd. 677,Glen Allen City,VA,23059
Christian1304,Wiles06121300,christian@automatetoday.com,9963 Brook Rd. 677,Glen Allen,VA State,23059
Christian1305,Wiles06121301,christian@automatetoday.com,10002 Brook Rd. 677,Glen Allen,VA,23059